NORAD_CAT_ID,OBJECT_NAME,OBJECT_TYPE,EPOCH,MEAN_MOTION,ECCENTRICITY,INCLINATION,RA_OF_ASC_NODE,ARG_OF_PERICENTER,MEAN_ANOMALY,BSTAR,MEAN_MOTION_DOT,MEAN_MOTION_DDOT,TLE_LINE0,TLE_LINE1,TLE_LINE2,SEMIMAJOR_AXIS,PERIOD,APOGEE,PERIGEE,DECAYED
55948.0,STARLINK-5900,PAYLOAD,2024-06-03 13:10:26,14.98328745,0.0002968,69.9996,88.7062,267.4367,92.6453,4.3785e-05,4.29e-06,0.0,0 STARLINK-5900,1 55948U 23037AL  24155.54891973  .00000429  00000-0  43785-4 0  9995,2 55948  69.9996  88.7062 0002968 267.4367  92.6453 14.98328745 67982,6950.197,96.107,574.125,569.999,0.0
55948.0,STARLINK-5900,PAYLOAD,2024-06-04 05:11:46,14.9833564,0.0002957,69.9997,87.0234,268.6013,91.4807,6.9566e-05,7.37e-06,0.0,0 STARLINK-5900,1 55948U 23037AL  24156.21651423  .00000737  00000-0  69566-4 0  9991,2 55948  69.9997  87.0234 0002957 268.6013  91.4807 14.98335640 68427,6950.175,96.107,574.096,569.985,0.0
55948.0,STARLINK-5900,PAYLOAD,2024-06-04 13:12:27,14.98334615,0.000294,69.9998,86.1814,268.9121,91.1702,9.8651e-06,2.5e-07,0.0,0 STARLINK-5900,1 55948U 23037AL  24156.55031569  .00000025  00000-0  98651-5 0  9999,2 55948  69.9998  86.1814 0002940 268.9121  91.1702 14.98334615 68137,6950.179,96.107,574.087,570.0,0.0
55948.0,STARLINK-5900,PAYLOAD,2024-06-05 05:13:47,14.98333531,0.0002916,70.0006,84.4989,268.9275,91.155,2.4699e-05,2.02e-06,0.0,0 STARLINK-5900,1 55948U 23037AL  24157.21791579  .00000202  00000-0  24699-4 0  9994,2 55948  70.0006  84.4989 0002916 268.9275  91.1550 14.98333531 68572,6950.182,96.107,574.074,570.02,0.0
55948.0,STARLINK-5900,PAYLOAD,2024-06-06 05:15:49,14.98326648,0.0002203,70.0023,81.9731,280.7107,79.3804,-3.3244e-05,-4.89e-06,0.0,0 STARLINK-5900,1 55948U 23037AL  24158.21932567 -.00000489  00000-0 -33244-4 0  9994,2 55948  70.0023  81.9731 0002203 280.7107  79.3804 14.98326648 68721,6950.203,96.107,573.599,570.537,0.0
55948.0,STARLINK-5900,PAYLOAD,2024-06-06 11:40:21,14.98328174,0.0002248,70.0022,81.2997,278.8673,81.2231,-2.1209e-05,-3.46e-06,0.0,0 STARLINK-5900,1 55948U 23037AL  24158.48636460 -.00000346  00000-0 -21209-4 0  9996,2 55948  70.0022  81.2997 0002248 278.8673  81.2231 14.98328174 68421,6950.199,96.107,573.626,570.501,0.0
55948.0,STARLINK-5900,PAYLOAD,2024-06-07 22:55:19,14.98332265,0.0002136,70.0028,77.594,303.7156,56.3799,4.5299e-05,4.48e-06,0.0,0 STARLINK-5900,1 55948U 23037AL  24159.95508285  .00000448  00000-0  45299-4 0  9998,2 55948  70.0028  77.5940 0002136 303.7156  56.3799 14.98332265 68645,6950.186,96.107,573.535,570.566,0.0
55948.0,STARLINK-5900,PAYLOAD,2024-06-08 03:43:42,14.98333576,0.0002191,70.0016,77.0916,269.152,90.9388,4.9536e-05,4.98e-06,0.0,0 STARLINK-5900,1 55948U 23037AL  24160.15535793  .00000498  00000-0  49536-4 0  9999,2 55948  70.0016  77.0916 0002191 269.1520  90.9388 14.98333576 69017,6950.182,96.107,573.57,570.524,0.0
55948.0,STARLINK-5900,PAYLOAD,2024-06-08 11:44:23,14.98327691,0.0002507,70.0029,76.2478,282.0149,78.0729,-1.8264e-05,-3.11e-06,0.0,0 STARLINK-5900,1 55948U 23037AL  24160.48916365 -.00000311  00000-0 -18264-4 0  9993,2 55948  70.0029  76.2478 0002507 282.0149  78.0729 14.98327691 68721,6950.2,96.107,573.807,570.323,0.0
55948.0,STARLINK-5900,PAYLOAD,2024-06-08 22:57:20,14.98327108,0.000261,70.0008,75.073,270.8859,89.2001,-6.8939e-05,-9.15e-06,0.0,0 STARLINK-5900,1 55948U 23037AL  24160.95648476 -.00000915  00000-0 -68939-4 0  9994,2 55948  70.0008  75.0730 0002610 270.8859  89.2001 14.98327108 68791,6950.202,96.107,573.881,570.253,0.0
55948.0,STARLINK-5900,PAYLOAD,2024-06-09 03:45:44,14.98326969,0.000278,70.0007,74.5697,271.5845,88.4995,-6.81e-06,-1.74e-06,0.0,0 STARLINK-5900,1 55948U 23037AL  24161.15676243 -.00000174  00000-0 -68100-5 0  9998,2 55948  70.0007  74.5697 0002780 271.5845  88.4995 14.98326969 68828,6950.202,96.107,573.999,570.135,0.0
55948.0,STARLINK-5900,PAYLOAD,2024-06-09 18:10:56,14.98332973,0.0002759,70.0007,73.0546,270.3501,89.7342,-9.2854e-05,-1.201e-05,0.0,0 STARLINK-5900,1 55948U 23037AL  24161.75760357 -.00001201  00000-0 -92854-4 0  9998,2 55948  70.0007  73.0546 0002759 270.3501  89.7342 14.98332973 69257,6950.184,96.107,573.966,570.131,0.0
55948.0,STARLINK-5900,PAYLOAD,2024-06-09 22:59:21,14.98339494,0.0002713,70.001,72.5496,269.6472,90.4376,-0.00018172,-2.261e-05,0.0,0 STARLINK-5900,1 55948U 23037AL  24161.95788238 -.00002261  00000-0 -18172-3 0  9995,2 55948  70.0010  72.5496 0002713 269.6472  90.4376 14.98339494 68943,6950.164,96.106,573.914,570.143,0.0
55948.0,STARLINK-5900,PAYLOAD,2024-06-10 11:48:25,14.98333828,0.0002903,70.0003,71.2009,270.0415,90.0411,-5.3641e-05,-7.33e-06,0.0,0 STARLINK-5900,1 55948U 23037AL  24162.49195964 -.00000733  00000-0 -53641-4 0  9996,2 55948  70.0003  71.2009 0002903 270.0415  90.0411 14.98333828 69026,6950.181,96.107,574.064,570.028,0.0
55948.0,STARLINK-5900,PAYLOAD,2024-06-10 19:49:05,14.98317127,0.0003009,70.0002,70.3592,269.4618,90.6196,0.00025781,2.983e-05,0.0,0 STARLINK-5900,1 55948U 23037AL  24162.82576245  .00002983  00000-0  25781-3 0  9998,2 55948  70.0002  70.3592 0003009 269.4618  90.6196 14.98317127 69410,6950.233,96.108,574.189,570.006,0.0
55948.0,STARLINK-5900,PAYLOAD,2024-06-10 23:01:21,14.98344968,0.0002835,70.0003,70.0224,273.3894,86.6941,-0.00021022,-2.601e-05,0.0,0 STARLINK-5900,1 55948U 23037AL  24162.95927603 -.00002601  00000-0 -21022-3 0  9993,2 55948  70.0003  70.0224 0002835 273.3894  86.6941 14.98344968 69096,6950.147,96.106,573.982,570.041,0.0
55948.0,STARLINK-5900,PAYLOAD,2024-06-11 03:49:45,14.98335544,0.0003013,70.0003,69.5184,271.0735,89.0079,9.3945e-05,1.028e-05,0.0,0 STARLINK-5900,1 55948U 23037AL  24163.15955475  .00001028  00000-0  93945-4 0  9998,2 55948  70.0003  69.5184 0003013 271.0735  89.0079 14.98335544 69462,6950.176,96.107,574.135,569.947,0.0
55948.0,STARLINK-5900,PAYLOAD,2024-06-12 03:51:46,14.98334656,0.0002899,70.0004,66.9932,271.8013,88.2814,4.2899e-05,4.19e-06,0.0,0 STARLINK-5900,1 55948U 23037AL  24164.16095648  .00000419  00000-0  42899-4 0  9992,2 55948  70.0004  66.9932 0002899 271.8013  88.2814 14.98334656 69611,6950.178,96.107,574.058,570.029,0.0
55948.0,STARLINK-5900,PAYLOAD,2024-06-12 19:53:07,14.9832769,0.000283,70.001,65.3102,273.8568,86.2267,-1.5244e-05,-2.75e-06,0.0,0 STARLINK-5900,1 55948U 23037AL  24164.82856230 -.00000275  00000-0 -15244-4 0  9993,2 55948  70.0010  65.3102 0002830 273.8568  86.2267 14.98327690 69713,6950.2,96.107,574.032,570.098,0.0
55948.0,STARLINK-5900,PAYLOAD,2024-06-12 21:29:15,14.98327939,0.0002807,70.0008,65.1419,273.6678,86.416,-2.8773e-05,-4.36e-06,0.0,0 STARLINK-5900,1 55948U 23037AL  24164.89532259 -.00000436  00000-0 -28773-4 0  9992,2 55948  70.0008  65.1419 0002807 273.6678  86.4160 14.98327939 69386,6950.199,96.107,574.015,570.113,0.0
55948.0,STARLINK-5900,PAYLOAD,2024-06-13 10:18:19,14.98339165,0.0002815,70.0008,63.7955,271.281,88.8026,-0.00010906,-1.394e-05,0.0,0 STARLINK-5900,1 55948U 23037AL  24165.42939647 -.00001394  00000-0 -10906-3 0  9996,2 55948  70.0008  63.7955 0002815 271.2810  88.8026 14.98339165 69804,6950.165,96.106,573.986,570.073,0.0
55948.0,STARLINK-5900,PAYLOAD,2024-06-13 21:31:16,14.98333952,0.0002747,70.0005,62.6176,266.2533,93.8312,3.1349e-05,2.81e-06,0.0,0 STARLINK-5900,1 55948U 23037AL  24165.89671548  .00000281  00000-0  31349-4 0  9997,2 55948  70.0005  62.6176 0002747 266.2533  93.8312 14.98333952 69536,6950.181,96.107,573.955,570.136,0.0
55948.0,STARLINK-5900,PAYLOAD,2024-06-14 10:20:20,14.98331963,0.0002738,70.0006,61.2709,268.5797,91.5048,2.3218e-05,1.84e-06,0.0,0 STARLINK-5900,1 55948U 23037AL  24166.43079559  .00000184  00000-0  23218-4 0  9990,2 55948  70.0006  61.2709 0002738 268.5797  91.5048 14.98331963 69611,6950.187,96.107,573.955,570.149,0.0
55948.0,STARLINK-5900,PAYLOAD,2024-06-14 21:33:17,14.98328342,0.0002802,70.0005,60.093,269.9852,90.0986,2.5504e-05,2.11e-06,0.0,0 STARLINK-5900,1 55948U 23037AL  24166.89811763  .00000211  00000-0  25504-4 0  9992,2 55948  70.0005  60.0930 0002802 269.9852  90.0986 14.98328342 69681,6950.198,96.107,574.01,570.116,0.0
55948.0,STARLINK-5900,PAYLOAD,2024-06-15 10:22:21,14.98331712,0.0002928,70.0001,58.745,271.3579,88.7245,-2.4117e-05,-3.81e-06,0.0,0 STARLINK-5900,1 55948U 23037AL  24167.43219568 -.00000381  00000-0 -24117-4 0  9997,2 55948  70.0001  58.7450 0002928 271.3579  88.7245 14.98331712 69766,6950.188,96.107,574.088,570.018,0.0
55948.0,STARLINK-5900,PAYLOAD,2024-06-15 23:11:26,14.98334597,0.0003048,70.0002,57.3982,272.1707,87.9103,-4.6554e-05,-6.48e-06,0.0,0 STARLINK-5900,1 55948U 23037AL  24167.96627397 -.00000648  00000-0 -46554-4 0  9993,2 55948  70.0002  57.3982 0003048 272.1707  87.9103 14.98334597 69845,6950.179,96.107,574.162,569.925,0.0
55948.0,STARLINK-5900,PAYLOAD,2024-06-16 10:24:22,14.9833401,0.0002874,70.0004,56.22,271.9071,88.1759,-5.64e-05,-7.66e-06,0.0,0 STARLINK-5900,1 55948U 23037AL  24168.43359373 -.00000766  00000-0 -56400-4 0  9994,2 55948  70.0004  56.2200 0002874 271.9071  88.1759 14.98334010 69913,6950.18,96.107,574.043,570.048,0.0
55948.0,STARLINK-5900,PAYLOAD,2024-06-16 23:13:27,14.98330836,0.0002859,70.0004,54.8731,270.8923,89.1909,4.9454e-06,-3.4e-07,0.0,0 STARLINK-5900,1 55948U 23037AL  24168.96767438 -.00000034  00000-0  49454-5 0  9996,2 55948  70.0004  54.8731 0002859 270.8923  89.1909 14.98330836 69991,6950.19,96.107,574.042,570.068,0.0
55948.0,STARLINK-5900,PAYLOAD,2024-06-17 20:03:12,14.98327148,0.0002861,70.0005,52.685,271.2088,88.8743,-7.0341e-07,-1.01e-06,0.0,0 STARLINK-5900,1 55948U 23037AL  24169.83555726 -.00000101  00000-0 -70341-6 0  9994,2 55948  70.0005  52.6850 0002861 271.2088  88.8743 14.98327148 70468,6950.202,96.107,574.055,570.078,0.0
55948.0,STARLINK-5900,PAYLOAD,2024-06-17 23:15:28,14.9832799,0.0003005,70.0005,52.3488,273.2456,86.836,5.3159e-05,5.41e-06,0.0,0 STARLINK-5900,1 55948U 23037AL  24169.96907522  .00000541  00000-0  53159-4 0  9995,2 55948  70.0005  52.3488 0003005 273.2456  86.8360 14.98327990 70147,6950.199,96.107,574.153,569.976,0.0
